# metar-cli

A command line tool to fetch and display METAR data from the requested airport.

## Use

```
metar <airport_id>
```

**Example**

```
metar kfdk
```

***Returns***

```
METAR KFDK 081955Z 11006KT 10SM CLR 24/06 A3026
```

